SL-8 R/B                
1 11574U 79089B   26106.19928447  .00000139  00000+0  49884-4 0  9999
2 11574  74.0713  21.6079 0016031 188.0848 172.0052 14.42375195441518
SL-14 R/B               
1 11672U 80005B   26106.17668572  .00000355  00000+0  33322-4 0  9996
2 11672  82.5113 271.6639 0016705  42.7874 317.4642 14.90973557482072
SL-8 R/B                
1 12139U 81003B   26106.13240989  .00010369  00000+0  25726-3 0  9992
2 12139  82.9370 255.3542 0257424  48.5456 313.7572 15.12592115320330
SL-3 R/B                
1 12465U 81046B   26106.21539776  .00007096  00000+0  15984-3 0  9993
2 12465  81.2301 244.6433 0018129 247.5631 112.3692 15.42918021444212
SL-3 R/B                
1 12904U 81103B   26106.25591495  .00002691  00000+0  11719-3 0  9993
2 12904  81.1597 169.3593 0013830 155.8479 204.3404 15.21791849978940
SL-3 R/B                
1 13068U 82013B   26106.31528730  .00002430  00000+0  10349-3 0  9994
2 13068  81.1713 116.6547 0023244  55.3187 305.0231 15.22334247410074
SL-3 R/B                
1 13154U 82039B   26106.22470249  .00000922  00000+0  54415-4 0  9996
2 13154  81.1518 172.6711 0027941 197.4659 162.5609 15.10278273387305
SL-3 R/B                
1 13403U 82079B   26106.19705313  .00002846  00000+0  11119-3 0  9996
2 13403  81.1454 148.7796 0024914  41.9639 318.3497 15.25247636383415
SL-14 R/B               
1 13553U 82092B   26106.25793551  .00000265  00000+0  26868-4 0  9996
2 13553  82.5646 106.2480 0020517 172.0460 198.8817 14.86699209334518
SL-3 R/B                
1 13819U 83010B   26106.14723226  .00007028  00000+0  13554-3 0  9993
2 13819  81.1015 316.2791 0015011 277.1885  82.7653 15.47529110363733
SL-3 R/B                
1 14208U 83075B   26106.27141810  .00006401  00000+0  16500-3 0  9992
2 14208  97.6128 112.2984 0023249  95.2704 265.1194 15.39293363335939
COSMOS 1536             
1 14699U 84013A   26106.27459159  .00003559  00000+0  14366-3 0  9996
2 14699  82.5435  70.4644 0015456 143.6445 216.5846 15.24343183278341
SL-14 R/B               
1 14820U 84027B   26106.26694816  .00000261  00000+0  27005-4 0  9999
2 14820  82.5441 209.7736 0017342 204.5737 155.4655 14.86016251253218
SL-8 R/B                
1 15483U 85006B   26106.29912735  .00000119  00000+0  47959-4 0  9991
2 15483  74.0463 191.9446 0017206  97.5680 318.2432 14.37808005159433
SL-12 R/B(2)            
1 15772U 85042D   26106.19815802  .00000062  00000+0  49039-4 0  9996
2 15772  71.1105   8.4844 0033116  65.8923  45.6087 14.21993114119729
SL-14 R/B               
1 15945U 85069B   26106.17292179  .00000259  00000+0  26409-4 0  9995
2 15945  82.5290 349.6967 0020272  69.8909 290.4487 14.86471441178404
SL-16 R/B               
1 16182U 85097B   26106.27823588  .00000182  00000+0  11505-3 0  9990
2 16182  71.0031  61.4145 0008573 213.7336 249.1520 14.16606092 92550
