[{"OBJECT_NAME":"SL-8 R/B","OBJECT_ID":"1979-089B","EPOCH":"2026-04-16T04:46:58.178208","MEAN_MOTION":14.42375195,"ECCENTRICITY":0.00160316,"INCLINATION":74.0713,"RA_OF_ASC_NODE":21.6079,"ARG_OF_PERICENTER":188.0848,"MEAN_ANOMALY":172.0052,"EPHEMERIS_TYPE":0,"CLASSIFICATION_TYPE":"U","NORAD_CAT_ID":11574,"ELEMENT_SET_NO":999,"REV_AT_EPOCH":44151,"BSTAR":4.988433e-5,"MEAN_MOTION_DOT":1.39e-6,"MEAN_MOTION_DDOT":0},{"OBJECT_NAME":"SL-14 R/B","OBJECT_ID":"1980-005B","EPOCH":"2026-04-16T04:14:25.646208","MEAN_MOTION":14.90973557,"ECCENTRICITY":0.00167055,"INCLINATION":82.5113,"RA_OF_ASC_NODE":271.6639,"ARG_OF_PERICENTER":42.7874,"MEAN_ANOMALY":317.4642,"EPHEMERIS_TYPE":0,"CLASSIFICATION_TYPE":"U","NORAD_CAT_ID":11672,"ELEMENT_SET_NO":999,"REV_AT_EPOCH":48207,"BSTAR":3.332153e-5,"MEAN_MOTION_DOT":3.55e-6,"MEAN_MOTION_DDOT":0},{"OBJECT_NAME":"SL-8 R/B","OBJECT_ID":"1981-003B","EPOCH":"2026-04-16T03:10:40.214496","MEAN_MOTION":15.12592115,"ECCENTRICITY":0.02574243,"INCLINATION":82.937,"RA_OF_ASC_NODE":255.3542,"ARG_OF_PERICENTER":48.5456,"MEAN_ANOMALY":313.7572,"EPHEMERIS_TYPE":0,"CLASSIFICATION_TYPE":"U","NORAD_CAT_ID":12139,"ELEMENT_SET_NO":999,"REV_AT_EPOCH":32033,"BSTAR":0.0002572637,"MEAN_MOTION_DOT":0.00010369,"MEAN_MOTION_DDOT":0},{"OBJECT_NAME":"SL-3 R/B","OBJECT_ID":"1981-046B","EPOCH":"2026-04-16T05:10:10.366464","MEAN_MOTION":15.42918021,"ECCENTRICITY":0.0018129,"INCLINATION":81.2301,"RA_OF_ASC_NODE":244.6433,"ARG_OF_PERICENTER":247.5631,"MEAN_ANOMALY":112.3692,"EPHEMERIS_TYPE":0,"CLASSIFICATION_TYPE":"U","NORAD_CAT_ID":12465,"ELEMENT_SET_NO":999,"REV_AT_EPOCH":44421,"BSTAR":0.00015984478,"MEAN_MOTION_DOT":7.096e-5,"MEAN_MOTION_DDOT":0},{"OBJECT_NAME":"SL-3 R/B","OBJECT_ID":"1981-103B","EPOCH":"2026-04-16T06:08:31.051680","MEAN_MOTION":15.21791849,"ECCENTRICITY":0.00138301,"INCLINATION":81.1597,"RA_OF_ASC_NODE":169.3593,"ARG_OF_PERICENTER":155.8479,"MEAN_ANOMALY":204.3404,"EPHEMERIS_TYPE":0,"CLASSIFICATION_TYPE":"U","NORAD_CAT_ID":12904,"ELEMENT_SET_NO":999,"REV_AT_EPOCH":97894,"BSTAR":0.0001171934,"MEAN_MOTION_DOT":2.691e-5,"MEAN_MOTION_DDOT":0},{"OBJECT_NAME":"SL-3 R/B","OBJECT_ID":"1982-013B","EPOCH":"2026-04-16T07:34:00.822720","MEAN_MOTION":15.22334247,"ECCENTRICITY":0.00232449,"INCLINATION":81.1713,"RA_OF_ASC_NODE":116.6547,"ARG_OF_PERICENTER":55.3187,"MEAN_ANOMALY":305.0231,"EPHEMERIS_TYPE":0,"CLASSIFICATION_TYPE":"U","NORAD_CAT_ID":13068,"ELEMENT_SET_NO":999,"REV_AT_EPOCH":41007,"BSTAR":0.0001034878,"MEAN_MOTION_DOT":2.43e-5,"MEAN_MOTION_DDOT":0},{"OBJECT_NAME":"SL-3 R/B","OBJECT_ID":"1982-039B","EPOCH":"2026-04-16T05:23:34.295136","MEAN_MOTION":15.10278273,"ECCENTRICITY":0.0027941,"INCLINATION":81.1518,"RA_OF_ASC_NODE":172.6711,"ARG_OF_PERICENTER":197.4659,"MEAN_ANOMALY":162.5609,"EPHEMERIS_TYPE":0,"CLASSIFICATION_TYPE":"U","NORAD_CAT_ID":13154,"ELEMENT_SET_NO":999,"REV_AT_EPOCH":38730,"BSTAR":5.4414695e-5,"MEAN_MOTION_DOT":9.22e-6,"MEAN_MOTION_DDOT":0},{"OBJECT_NAME":"SL-3 R/B","OBJECT_ID":"1982-079B","EPOCH":"2026-04-16T04:43:45.390432","MEAN_MOTION":15.25247636,"ECCENTRICITY":0.00249143,"INCLINATION":81.1454,"RA_OF_ASC_NODE":148.7796,"ARG_OF_PERICENTER":41.9639,"MEAN_ANOMALY":318.3497,"EPHEMERIS_TYPE":0,"CLASSIFICATION_TYPE":"U","NORAD_CAT_ID":13403,"ELEMENT_SET_NO":999,"REV_AT_EPOCH":38341,"BSTAR":0.00011118683,"MEAN_MOTION_DOT":2.846e-5,"MEAN_MOTION_DDOT":0},{"OBJECT_NAME":"SL-14 R/B","OBJECT_ID":"1982-092B","EPOCH":"2026-04-16T06:11:25.628064","MEAN_MOTION":14.86699209,"ECCENTRICITY":0.00205171,"INCLINATION":82.5646,"RA_OF_ASC_NODE":106.248,"ARG_OF_PERICENTER":172.046,"MEAN_ANOMALY":198.8817,"EPHEMERIS_TYPE":0,"CLASSIFICATION_TYPE":"U","NORAD_CAT_ID":13553,"ELEMENT_SET_NO":999,"REV_AT_EPOCH":33451,"BSTAR":2.6867757e-5,"MEAN_MOTION_DOT":2.65e-6,"MEAN_MOTION_DDOT":0},{"OBJECT_NAME":"SL-3 R/B","OBJECT_ID":"1983-010B","EPOCH":"2026-04-16T03:32:00.867264","MEAN_MOTION":15.4752911,"ECCENTRICITY":0.00150112,"INCLINATION":81.1015,"RA_OF_ASC_NODE":316.2791,"ARG_OF_PERICENTER":277.1885,"MEAN_ANOMALY":82.7653,"EPHEMERIS_TYPE":0,"CLASSIFICATION_TYPE":"U","NORAD_CAT_ID":13819,"ELEMENT_SET_NO":999,"REV_AT_EPOCH":36373,"BSTAR":0.00013553732,"MEAN_MOTION_DOT":7.028e-5,"MEAN_MOTION_DDOT":0},{"OBJECT_NAME":"SL-3 R/B","OBJECT_ID":"1983-075B","EPOCH":"2026-04-16T06:30:50.523840","MEAN_MOTION":15.39293363,"ECCENTRICITY":0.00232497,"INCLINATION":97.6128,"RA_OF_ASC_NODE":112.2984,"ARG_OF_PERICENTER":95.2704,"MEAN_ANOMALY":265.1194,"EPHEMERIS_TYPE":0,"CLASSIFICATION_TYPE":"U","NORAD_CAT_ID":14208,"ELEMENT_SET_NO":999,"REV_AT_EPOCH":33593,"BSTAR":0.00016499558,"MEAN_MOTION_DOT":6.401e-5,"MEAN_MOTION_DDOT":0},{"OBJECT_NAME":"COSMOS 1536","OBJECT_ID":"1984-013A","EPOCH":"2026-04-16T06:35:24.713376","MEAN_MOTION":15.24343183,"ECCENTRICITY":0.00154567,"INCLINATION":82.5435,"RA_OF_ASC_NODE":70.4644,"ARG_OF_PERICENTER":143.6445,"MEAN_ANOMALY":216.5846,"EPHEMERIS_TYPE":0,"CLASSIFICATION_TYPE":"U","NORAD_CAT_ID":14699,"ELEMENT_SET_NO":999,"REV_AT_EPOCH":27834,"BSTAR":0.00014365604,"MEAN_MOTION_DOT":3.559e-5,"MEAN_MOTION_DDOT":0},{"OBJECT_NAME":"SL-14 R/B","OBJECT_ID":"1984-027B","EPOCH":"2026-04-16T06:24:24.321024","MEAN_MOTION":14.86016251,"ECCENTRICITY":0.0017342,"INCLINATION":82.5441,"RA_OF_ASC_NODE":209.7736,"ARG_OF_PERICENTER":204.5737,"MEAN_ANOMALY":155.4655,"EPHEMERIS_TYPE":0,"CLASSIFICATION_TYPE":"U","NORAD_CAT_ID":14820,"ELEMENT_SET_NO":999,"REV_AT_EPOCH":25321,"BSTAR":2.7004984e-5,"MEAN_MOTION_DOT":2.61e-6,"MEAN_MOTION_DDOT":0},{"OBJECT_NAME":"SL-8 R/B","OBJECT_ID":"1985-006B","EPOCH":"2026-04-16T07:10:44.603040","MEAN_MOTION":14.37808005,"ECCENTRICITY":0.00172064,"INCLINATION":74.0463,"RA_OF_ASC_NODE":191.9446,"ARG_OF_PERICENTER":97.568,"MEAN_ANOMALY":318.2432,"EPHEMERIS_TYPE":0,"CLASSIFICATION_TYPE":"U","NORAD_CAT_ID":15483,"ELEMENT_SET_NO":999,"REV_AT_EPOCH":15943,"BSTAR":4.7958903e-5,"MEAN_MOTION_DOT":1.19e-6,"MEAN_MOTION_DDOT":0},{"OBJECT_NAME":"SL-12 R/B(2)","OBJECT_ID":"1985-042D","EPOCH":"2026-04-16T04:45:20.852928","MEAN_MOTION":14.21993114,"ECCENTRICITY":0.0033116,"INCLINATION":71.1105,"RA_OF_ASC_NODE":8.4844,"ARG_OF_PERICENTER":65.8923,"MEAN_ANOMALY":45.6087,"EPHEMERIS_TYPE":0,"CLASSIFICATION_TYPE":"U","NORAD_CAT_ID":15772,"ELEMENT_SET_NO":999,"REV_AT_EPOCH":11972,"BSTAR":4.9038739e-5,"MEAN_MOTION_DOT":6.2e-7,"MEAN_MOTION_DDOT":0},{"OBJECT_NAME":"SL-14 R/B","OBJECT_ID":"1985-069B","EPOCH":"2026-04-16T04:09:00.442656","MEAN_MOTION":14.86471441,"ECCENTRICITY":0.00202721,"INCLINATION":82.529,"RA_OF_ASC_NODE":349.6967,"ARG_OF_PERICENTER":69.8909,"MEAN_ANOMALY":290.4487,"EPHEMERIS_TYPE":0,"CLASSIFICATION_TYPE":"U","NORAD_CAT_ID":15945,"ELEMENT_SET_NO":999,"REV_AT_EPOCH":17840,"BSTAR":2.6408715e-5,"MEAN_MOTION_DOT":2.59e-6,"MEAN_MOTION_DDOT":0},{"OBJECT_NAME":"SL-16 R/B","OBJECT_ID":"1985-097B","EPOCH":"2026-04-16T06:40:39.580032","MEAN_MOTION":14.16606092,"ECCENTRICITY":0.00085734,"INCLINATION":71.0031,"RA_OF_ASC_NODE":61.4145,"ARG_OF_PERICENTER":213.7336,"MEAN_ANOMALY":249.152,"EPHEMERIS_TYPE":0,"CLASSIFICATION_TYPE":"U","NORAD_CAT_ID":16182,"ELEMENT_SET_NO":999,"REV_AT_EPOCH":9255,"BSTAR":0.00011505076,"MEAN_MOTION_DOT":1.82e-6,"MEAN_MOTION_DDOT":0}]
